{"type":"FeatureCollection","features":[{"type":"Feature","properties":{"name":"Говь-Алтай"},"geometry":{"type":"Polygon","coordinates":[[[98.32719,45.03972],[98.24769,44.94597],[98.23658,44.88611],[98.24114,44.854],[98.21328,44.83728],[98.26314,44.72169],[98.22675,44.63531],[98.19744,44.52258],[98.10561,44.45331],[97.94819,44.411],[97.96947,44.08886],[97.98773,44.07165],[97.98418,44.0533],[97.97635,44.04948],[97.96827,44.03144],[97.9722,44.01707],[97.98961,43.99673],[97.97025,43.90982],[97.9673,43.84386],[97.94889,43.80005],[97.95247,43.76022],[97.93362,43.7227],[97.94911,43.69956],[97.94767,43.66448],[97.97635,43.62886],[97.9643,43.61825],[97.95716,43.59342],[97.9034,43.54036],[97.90187,43.53088],[97.92387,43.51079],[97.84562,43.38702],[97.84518,43.37126],[97.77573,43.31311],[97.82106,43.03189],[97.84628,42.70233],[97.1715,42.79456],[96.97775,42.75433],[96.74856,42.75497],[96.3875,42.72464],[96.36306,42.89872],[95.90919,43.23564],[95.87706,43.27719],[95.85764,43.41367],[95.73589,43.59439],[95.64747,43.77644],[95.62297,43.85189],[95.52281,44.00506],[95.44603,44.00478],[95.37264,44.02444],[95.32317,44.02592],[95.34764,44.08925],[95.35247,44.16658],[95.37314,44.22625],[95.40572,44.24108],[95.42258,44.26481],[95.42597,44.28003],[95.40981,44.29392],[94.99864,44.25089],[94.97778,44.25942],[94.93736,44.29219],[94.89856,44.29936],[94.88239,44.30914],[94.82378,44.31794],[94.78417,44.33692],[94.72381,44.33906],[94.67169,44.39383],[94.60292,44.44681],[94.55586,44.45906],[94.46225,44.51044],[94.39047,44.5225],[94.348,44.51672],[94.34311,44.52275],[94.34739,44.54144],[94.32633,44.58233],[94.27619,44.60492],[94.22139,44.64753],[94.21136,44.66772],[94.14997,44.68361],[94.06208,44.73242],[93.72867,44.86147],[93.71197,44.87539],[93.70989,44.89678],[93.69414,44.89503],[93.67956,44.90117],[93.67741,44.90831],[93.54318,44.94878],[93.50431,44.96817],[93.50042,44.9551],[93.48264,44.96708],[93.46278,44.95761],[93.42898,44.95616],[93.37631,44.98641],[93.33921,44.98672],[93.32297,44.99467],[93.31289,44.9801],[93.20444,45.00253],[93.19269,45.07381],[93.16692,45.12908],[93.14658,45.32586],[93.13889,45.56472],[93.09944,45.63014],[93.11297,45.66075],[93.12564,45.67333],[93.11303,45.74253],[93.18428,45.76753],[93.23931,45.80592],[93.36344,45.84314],[93.36409,45.86614],[93.38457,45.91012],[93.43699,45.94723],[93.44667,45.96483],[93.44456,45.9835],[93.40308,46.00625],[93.40175,46.02806],[93.42775,46.04189],[93.47433,46.09772],[93.46178,46.117],[93.51769,46.18503],[93.53504,46.19455],[93.55556,46.25233],[93.60664,46.32044],[93.64756,46.39372],[93.59178,46.464],[93.60733,46.49531],[93.5665,46.52328],[93.50122,46.59864],[93.54358,46.63533],[93.58267,46.62053],[93.68906,46.62339],[93.73244,46.60048],[93.78513,46.60257],[93.83797,46.62144],[93.93167,46.72411],[94.08761,46.72103],[94.30717,46.77872],[94.27364,46.85636],[94.15539,46.99239],[94.04236,47.21283],[94.058,47.24667],[93.99125,47.30628],[93.79158,47.34894],[93.71808,47.44433],[93.64967,47.49189],[93.57278,47.52089],[93.51522,47.56672],[93.52372,47.57883],[93.5915,47.61828],[93.62644,47.66439],[93.99375,47.73333],[94.12072,47.77953],[94.19569,47.79322],[94.21607,47.76828],[94.24892,47.75474],[94.28625,47.72925],[94.3783,47.70549],[94.43453,47.70069],[94.44712,47.69173],[94.47649,47.68837],[94.49486,47.6795],[94.57698,47.67233],[94.58537,47.67389],[94.57008,47.67536],[94.62492,47.67894],[94.65792,47.67146],[94.70224,47.67596],[94.75275,47.671],[94.77377,47.67522],[94.80039,47.66977],[94.85977,47.67573],[94.88115,47.67109],[94.8708,47.67155],[94.88463,47.66146],[94.89143,47.66502],[94.88203,47.66347],[94.88034,47.66957],[94.89647,47.67184],[94.98046,47.65381],[94.99452,47.63172],[95.02299,47.61446],[95.03487,47.58473],[95.05657,47.57385],[95.0616,47.56397],[95.07366,47.56569],[95.07832,47.55338],[95.0888,47.54945],[95.20524,47.58257],[95.22418,47.57764],[95.24685,47.58394],[95.29357,47.58439],[95.32482,47.5712],[95.42266,47.56596],[95.75617,47.43842],[95.88842,47.37681],[95.92141,47.35362],[95.96234,47.35568],[96.03507,47.32603],[96.0619,47.32485],[96.17178,47.29069],[96.16294,47.2595],[96.23097,47.20347],[96.26569,47.2025],[96.27222,47.10164],[96.25925,47.03503],[96.23706,47.01444],[96.24072,46.97633],[96.29172,46.92381],[96.30847,46.89208],[96.28953,46.86178],[96.2905,46.84861],[96.31619,46.8526],[96.32224,46.86323],[96.34718,46.84273],[96.55256,46.89303],[96.66133,46.96131],[96.73158,46.89717],[96.79092,46.87628],[96.87769,46.74008],[96.94853,46.69344],[96.94256,46.65675],[96.98817,46.58953],[97.01811,46.59956],[97.20936,46.56531],[97.27561,46.58639],[97.28228,46.59656],[97.30881,46.61111],[97.32473,46.63503],[97.35208,46.6488],[97.37568,46.68694],[97.38277,46.7193],[97.40201,46.719],[97.41214,46.72669],[97.43081,46.71739],[97.46558,46.63714],[97.52994,46.59139],[97.63119,46.60144],[97.65072,46.57183],[97.65006,46.53706],[97.66642,46.51736],[97.67481,46.44442],[97.72744,46.41136],[97.73608,46.35856],[97.72847,46.33464],[97.77472,46.32411],[97.79,46.30294],[97.80006,46.26622],[97.94928,46.20764],[98.00239,46.13089],[98.12542,46.08733],[98.17358,46.04547],[98.18078,46.01403],[98.31089,45.89011],[98.35358,45.87844],[98.42217,45.81228],[98.45658,45.75578],[98.48636,45.45081],[98.48419,45.38903],[98.40161,45.19239],[98.34242,45.12006],[98.32719,45.03972]]]}}]}