{"type":"FeatureCollection","features":[{"type":"Feature","properties":{"idx":0,"name":"Есөнбулаг","soum":"Есөнбулаг","source":"ЗТХЯ сумын төв","schools":4,"kindergartens":5,"households":5414,"population":18931},"geometry":{"type":"Point","coordinates":[96.24122,46.39023]}},{"type":"Feature","properties":{"idx":1,"name":"АЛТАЙ","soum":"Алтай","source":"ЗТХЯ сумын төв","schools":1,"kindergartens":1,"households":523,"population":2056},"geometry":{"type":"Point","coordinates":[94.91906,44.61809]}},{"type":"Feature","properties":{"idx":2,"name":"БАЯН-УУЛ","soum":"Баян Уул","source":"ЗТХЯ сумын төв","schools":2,"kindergartens":2,"households":832,"population":3026},"geometry":{"type":"Point","coordinates":[95.19007,46.97875]}},{"type":"Feature","properties":{"idx":3,"name":"БИГЭР","soum":"Бигэр","source":"ЗТХЯ сумын төв","schools":1,"kindergartens":2,"households":640,"population":2243},"geometry":{"type":"Point","coordinates":[97.16992,45.72363]}},{"type":"Feature","properties":{"idx":4,"name":"БУГАТ","soum":"Бугат","source":"ЗТХЯ сумын төв","schools":1,"kindergartens":1,"households":568,"population":2210},"geometry":{"type":"Point","coordinates":[94.36691,45.55817]}},{"type":"Feature","properties":{"idx":5,"name":"ДАРВИ","soum":"Дарив","source":"ЗТХЯ сумын төв","schools":1,"kindergartens":1,"households":459,"population":1860},"geometry":{"type":"Point","coordinates":[94.10406,46.47697]}},{"type":"Feature","properties":{"idx":6,"name":"ДЭЛГЭР","soum":"Дэлгэр","source":"ЗТХЯ сумын төв","schools":2,"kindergartens":2,"households":928,"population":3146},"geometry":{"type":"Point","coordinates":[97.36599,46.37044]}},{"type":"Feature","properties":{"idx":7,"name":"ЖАРГАЛАН","soum":"Жаргалан","source":"ЗТХЯ сумын төв","schools":1,"kindergartens":1,"households":506,"population":1826},"geometry":{"type":"Point","coordinates":[95.93489,46.9663]}},{"type":"Feature","properties":{"idx":8,"name":"ТАЙШИР","soum":"Тайшир","source":"ЗТХЯ сумын төв","schools":1,"kindergartens":1,"households":467,"population":1599},"geometry":{"type":"Point","coordinates":[96.50537,46.7065]}},{"type":"Feature","properties":{"idx":9,"name":"ТОНХИЛ","soum":"Тонхил","source":"ЗТХЯ сумын төв","schools":1,"kindergartens":2,"households":606,"population":2222},"geometry":{"type":"Point","coordinates":[93.90843,46.31294]}},{"type":"Feature","properties":{"idx":10,"name":"ТӨГРӨГ","soum":"Төгрөг","source":"ЗТХЯ сумын төв","schools":1,"kindergartens":1,"households":565,"population":2034},"geometry":{"type":"Point","coordinates":[94.8058,45.83442]}},{"type":"Feature","properties":{"idx":11,"name":"ХАЛИУН","soum":"Халиун","source":"ЗТХЯ сумын төв","schools":2,"kindergartens":2,"households":671,"population":2458},"geometry":{"type":"Point","coordinates":[96.1578,45.94109]}},{"type":"Feature","properties":{"idx":12,"name":"ХӨХМОРЬТ","soum":"Хөхморьт","source":"ЗТХЯ сумын төв","schools":2,"kindergartens":2,"households":666,"population":2367},"geometry":{"type":"Point","coordinates":[94.52851,47.35973]}},{"type":"Feature","properties":{"idx":13,"name":"ЦОГТ","soum":"Цогт","source":"ЗТХЯ сумын төв","schools":2,"kindergartens":2,"households":994,"population":3585},"geometry":{"type":"Point","coordinates":[96.62981,45.35228]}},{"type":"Feature","properties":{"idx":14,"name":"ЦЭЭЛ","soum":"Цээл","source":"ЗТХЯ сумын төв","schools":1,"kindergartens":1,"households":597,"population":2207},"geometry":{"type":"Point","coordinates":[95.83808,45.55381]}},{"type":"Feature","properties":{"idx":15,"name":"ЧАНДМАНЬ","soum":"Чандмань","source":"ЗТХЯ сумын төв","schools":2,"kindergartens":2,"households":650,"population":2247},"geometry":{"type":"Point","coordinates":[97.98086,45.33818]}},{"type":"Feature","properties":{"idx":16,"name":"ШАРГА","soum":"Шарга","source":"ЗТХЯ сумын төв","schools":1,"kindergartens":1,"households":595,"population":1936},"geometry":{"type":"Point","coordinates":[95.27272,46.27934]}},{"type":"Feature","properties":{"idx":17,"name":"ЭРДЭНЭ","soum":"Эрдэнэ","source":"ЗТХЯ сумын төв","schools":2,"kindergartens":2,"households":678,"population":2327},"geometry":{"type":"Point","coordinates":[97.74961,45.13078]}}]}