{"type":"FeatureCollection","features":[{"type":"Feature","properties":{"name":"Ханх боомт-Хатгал-Мөрөн-Улиастай-Алтай-Бургастай боомт","code":"A1104","pavement":"хайрга","status":"Засвар хийгдэж байгаа","load":"Бага","owner":"Төрийн өмчит компани","builtYear":1994,"lengthKm":73.5},"geometry":{"type":"MultiLineString","coordinates":[[[94.59368,45.14203],[94.6162,45.10473],[94.58058,45.08599],[94.54269,45.0552],[94.53538,45.04618],[94.54008,45.03481],[94.53907,45.02485],[94.54184,45.0221],[94.54044,45.01813],[94.5432,45.0089],[94.55672,44.98904],[94.54848,44.98147],[94.5492,44.97557],[94.53637,44.97378],[94.5394,44.96835],[94.53891,44.96205],[94.54417,44.95243],[94.52008,44.95182],[94.51959,44.93806],[94.4973,44.90354],[94.48368,44.8888],[94.45588,44.87039],[94.40179,44.84273],[94.3646,44.82073],[94.32479,44.80449],[94.29849,44.78718],[94.29104,44.77447],[94.29133,44.76617],[94.26162,44.73782],[94.20056,44.72242],[94.17941,44.7115],[94.13762,44.71981],[94.11338,44.71537]]]}},{"type":"Feature","properties":{"name":"Ханх боомт-Хатгал-Мөрөн-Улиастай-Алтай-Бургастай боомт","code":"A1104","pavement":"сайжруулсан хөрсөн","status":"Ашиглагтанд ороогүй","load":"Бага","owner":"Төрийн өмчит компани","builtYear":1972,"lengthKm":9.2},"geometry":{"type":"MultiLineString","coordinates":[[[94.65243,45.36408],[94.62598,45.35607],[94.61267,45.34624],[94.6032,45.3424],[94.60083,45.33912],[94.59839,45.32099],[94.58848,45.30637]]]}},{"type":"Feature","properties":{"name":"Ханх боомт-Хатгал-Мөрөн-Улиастай-Алтай-Бургастай боомт","code":"A1104","pavement":"сайжруулсан хөрсөн","status":"Ашиглагтанд ороогүй","load":"Бага","owner":"Төрийн өмчит компани","builtYear":2009,"lengthKm":6.2},"geometry":{"type":"MultiLineString","coordinates":[[[94.57022,45.55789],[94.57293,45.55258],[94.58684,45.54885],[94.60035,45.53619],[94.60483,45.52895],[94.61329,45.52808],[94.61703,45.52507]]]}},{"type":"Feature","properties":{"name":"Ханх боомт-Хатгал-Мөрөн-Улиастай-Алтай-Бургастай боомт","code":"A1104","pavement":"сайжруулсан хөрсөн","status":"Ашиглагтанд ороогүй","load":"Бага","owner":"Төрийн өмчит компани","builtYear":2012,"lengthKm":1.2},"geometry":{"type":"MultiLineString","coordinates":[[[94.50729,45.61007],[94.50525,45.60439],[94.50068,45.60063]]]}},{"type":"Feature","properties":{"name":"Ханх боомт-Хатгал-Мөрөн-Улиастай-Алтай-Бургастай боомт","code":"A1104","pavement":"сайжруулсан хөрсөн","status":"Ашиглагтанд ороогүй","load":"Бага","owner":"Төрийн өмчит компани","builtYear":2010,"lengthKm":25.5},"geometry":{"type":"MultiLineString","coordinates":[[[95.23123,46.16976],[95.21228,46.15421],[95.20451,46.1526],[95.19505,46.1449],[95.17042,46.1133],[95.16839,46.10929],[95.16964,46.09849],[95.16727,46.09073],[95.16933,46.08603],[95.16698,46.07422],[95.1179,46.05854],[95.10863,46.04464],[95.07681,46.02485],[95.04634,46.01281],[95.03878,46.00629]]]}},{"type":"Feature","properties":{"name":"Ханх боомт-Хатгал-Мөрөн-Улиастай-Алтай-Бургастай боомт","code":"A1103","pavement":"хайрга","status":"Засвар хийгдэж байгаа","load":"Бага","owner":"Төрийн өмчит компани","builtYear":1979,"lengthKm":22.9},"geometry":{"type":"MultiLineString","coordinates":[[[96.46794,46.58012],[96.46061,46.56719],[96.4475,46.55653],[96.44597,46.54951],[96.40647,46.52256],[96.39968,46.51663],[96.40014,46.51119],[96.37836,46.4938],[96.37048,46.48333],[96.34447,46.46556],[96.33419,46.44703],[96.33658,46.43831],[96.31796,46.41171]]]}},{"type":"Feature","properties":{"name":"Ханх боомт-Хатгал-Мөрөн-Улиастай-Алтай-Бургастай боомт","code":"A1104","pavement":"хайрга","status":"Засвар хийгдэж байгаа","load":"Бага","owner":"Төрийн өмчит компани","builtYear":2009,"lengthKm":73.5},"geometry":{"type":"MultiLineString","coordinates":[[[94.59368,45.14203],[94.6162,45.10473],[94.58058,45.08599],[94.54269,45.0552],[94.53538,45.04618],[94.54008,45.03481],[94.53907,45.02485],[94.54184,45.0221],[94.54044,45.01813],[94.5432,45.0089],[94.55672,44.98904],[94.54848,44.98147],[94.5492,44.97557],[94.53637,44.97378],[94.5394,44.96835],[94.53891,44.96205],[94.54417,44.95243],[94.52008,44.95182],[94.51959,44.93806],[94.4973,44.90354],[94.48368,44.8888],[94.45588,44.87039],[94.40179,44.84273],[94.3646,44.82073],[94.32479,44.80449],[94.29849,44.78718],[94.29104,44.77447],[94.29133,44.76617],[94.26162,44.73782],[94.20056,44.72242],[94.17941,44.7115],[94.13762,44.71981],[94.11338,44.71537]]]}},{"type":"Feature","properties":{"name":"Ханх боомт-Хатгал-Мөрөн-Улиастай-Алтай-Бургастай боомт","code":"A1104","pavement":"ердийн хөрсөн","status":"Хаасан","load":"Бага","owner":"Төрийн өмчит компани","builtYear":1993,"lengthKm":18.8},"geometry":{"type":"MultiLineString","coordinates":[[[94.58848,45.30637],[94.58569,45.30033],[94.58498,45.28265],[94.59519,45.23083],[94.59465,45.19458],[94.60443,45.16128],[94.59921,45.15186],[94.59234,45.14674],[94.59368,45.14203]]]}},{"type":"Feature","properties":{"name":"Ханх боомт-Хатгал-Мөрөн-Улиастай-Алтай-Бургастай боомт","code":"A1104","pavement":"сайжруулсан хөрсөн","status":"Ашиглагтанд ороогүй","load":"Бага","owner":"Төрийн өмчит компани","builtYear":1999,"lengthKm":9.2},"geometry":{"type":"MultiLineString","coordinates":[[[94.65243,45.36408],[94.62598,45.35607],[94.61267,45.34624],[94.6032,45.3424],[94.60083,45.33912],[94.59839,45.32099],[94.58848,45.30637]]]}},{"type":"Feature","properties":{"name":"Ханх боомт-Хатгал-Мөрөн-Улиастай-Алтай-Бургастай боомт","code":"A1104","pavement":"ердийн хөрсөн","status":"Хаасан","load":"Бага","owner":"Төрийн өмчит компани","builtYear":1990,"lengthKm":20.2},"geometry":{"type":"MultiLineString","coordinates":[[[94.61703,45.52507],[94.62396,45.51932],[94.61847,45.50222],[94.62148,45.48917],[94.65417,45.43237],[94.64952,45.42376],[94.65303,45.4087],[94.66,45.40122],[94.67424,45.37771],[94.67252,45.37424],[94.65921,45.36927],[94.65243,45.36408]]]}},{"type":"Feature","properties":{"name":"Ханх боомт-Хатгал-Мөрөн-Улиастай-Алтай-Бургастай боомт","code":"A1104","pavement":"сайжруулсан хөрсөн","status":"Ашиглагтанд ороогүй","load":"Бага","owner":"Төрийн өмчит компани","builtYear":1974,"lengthKm":6.2},"geometry":{"type":"MultiLineString","coordinates":[[[94.57022,45.55789],[94.57293,45.55258],[94.58684,45.54885],[94.60035,45.53619],[94.60483,45.52895],[94.61329,45.52808],[94.61703,45.52507]]]}},{"type":"Feature","properties":{"name":"Ханх боомт-Хатгал-Мөрөн-Улиастай-Алтай-Бургастай боомт","code":"A1104","pavement":"ердийн хөрсөн","status":"Хаасан","load":"Бага","owner":"Төрийн өмчит компани","builtYear":1990,"lengthKm":10.2},"geometry":{"type":"MultiLineString","coordinates":[[[94.50068,45.60063],[94.49139,45.58648],[94.4982,45.57657],[94.49275,45.57201],[94.50853,45.56778],[94.56598,45.56226],[94.57022,45.55789]]]}},{"type":"Feature","properties":{"name":"Ханх боомт-Хатгал-Мөрөн-Улиастай-Алтай-Бургастай боомт","code":"A1104","pavement":"сайжруулсан хөрсөн","status":"Ашиглагтанд ороогүй","load":"Бага","owner":"Төрийн өмчит компани","builtYear":1970,"lengthKm":1.2},"geometry":{"type":"MultiLineString","coordinates":[[[94.50729,45.61007],[94.50525,45.60439],[94.50068,45.60063]]]}},{"type":"Feature","properties":{"name":"Ханх боомт-Хатгал-Мөрөн-Улиастай-Алтай-Бургастай боомт","code":"A1104","pavement":"ердийн хөрсөн","status":"Хаасан","load":"Бага","owner":"Төрийн өмчит компани","builtYear":1991,"lengthKm":64.5},"geometry":{"type":"MultiLineString","coordinates":[[[95.03878,46.00629],[95.0109,45.98024],[94.95652,45.94625],[94.93294,45.93426],[94.85927,45.88443],[94.81403,45.86403],[94.78008,45.85417],[94.75593,45.8409],[94.74681,45.83355],[94.74277,45.82688],[94.72688,45.81983],[94.71301,45.80423],[94.70631,45.8023],[94.7049,45.79614],[94.69408,45.79026],[94.68734,45.77067],[94.69159,45.76067],[94.68876,45.75702],[94.68767,45.74402],[94.68495,45.73931],[94.67665,45.73504],[94.67842,45.73359],[94.67659,45.73079],[94.66919,45.72587],[94.66369,45.71306],[94.636,45.70404],[94.61529,45.6909],[94.59962,45.68485],[94.58486,45.67128],[94.55261,45.65051],[94.53216,45.63301],[94.52261,45.62141],[94.50729,45.61007]]]}},{"type":"Feature","properties":{"name":"Ханх боомт-Хатгал-Мөрөн-Улиастай-Алтай-Бургастай боомт","code":"A1104","pavement":"сайжруулсан хөрсөн","status":"Ашиглагтанд ороогүй","load":"Бага","owner":"Төрийн өмчит компани","builtYear":1970,"lengthKm":25.5},"geometry":{"type":"MultiLineString","coordinates":[[[95.23123,46.16976],[95.21228,46.15421],[95.20451,46.1526],[95.19505,46.1449],[95.17042,46.1133],[95.16839,46.10929],[95.16964,46.09849],[95.16727,46.09073],[95.16933,46.08603],[95.16698,46.07422],[95.1179,46.05854],[95.10863,46.04464],[95.07681,46.02485],[95.04634,46.01281],[95.03878,46.00629]]]}},{"type":"Feature","properties":{"name":"Улаанбаатар-Арвайхээр-Баянхонгор-Алтай-Ховд-Өлгий-Цагааннуур боомт","code":"A0303","pavement":"баригдаж байгаа","status":"Ашиглагтанд ороогүй","load":"Бага","owner":"Хувийн компани","builtYear":2001,"lengthKm":1.5},"geometry":{"type":"MultiLineString","coordinates":[[[98.14742,46.06738],[98.13607,46.06656],[98.12911,46.06943]]]}},{"type":"Feature","properties":{"name":"Ханх боомт-Хатгал-Мөрөн-Улиастай-Алтай-Бургастай боомт","code":"A1104","pavement":"ердийн хөрсөн","status":"Хаасан","load":"Бага","owner":"Төрийн өмчит компани","builtYear":1984,"lengthKm":4.7},"geometry":{"type":"MultiLineString","coordinates":[[[95.27196,46.20089],[95.23123,46.16976]]]}},{"type":"Feature","properties":{"name":"Ханх боомт-Хатгал-Мөрөн-Улиастай-Алтай-Бургастай боомт","code":"A1104","pavement":"ердийн хөрсөн","status":"Хаасан","load":"Бага","owner":"Төрийн өмчит компани","builtYear":1981,"lengthKm":3.1},"geometry":{"type":"MultiLineString","coordinates":[[[95.29335,46.22423],[95.28518,46.21273],[95.27196,46.20089]]]}},{"type":"Feature","properties":{"name":"Улаанбаатар-Арвайхээр-Баянхонгор-Алтай-Ховд-Өлгий-Цагааннуур боомт","code":"A0303","pavement":"асфальтбетон","status":"Хэвийн","load":"Их","owner":"Төрийн өмчит компани","builtYear":1980,"lengthKm":120},"geometry":{"type":"MultiLineString","coordinates":[[[97.72568,46.16181],[97.70802,46.17023],[97.67084,46.17752],[97.65935,46.17606],[97.64616,46.16979],[97.63573,46.16831],[97.59229,46.18281],[97.54253,46.21311],[97.51124,46.22916],[97.40705,46.29404],[97.35922,46.31678],[97.30784,46.33166],[97.19946,46.34112],[97.09268,46.34386],[97.01058,46.35099],[96.96477,46.36854],[96.92781,46.36924],[96.89899,46.37515],[96.82093,46.38391],[96.69573,46.39481],[96.62931,46.39647],[96.51034,46.38821],[96.48142,46.39086],[96.42375,46.38861],[96.41412,46.38958],[96.34317,46.41036],[96.31947,46.4123],[96.30534,46.40277],[96.28643,46.39858],[96.28146,46.39406]]]}},{"type":"Feature","properties":{"name":"Ханх боомт-Хатгал-Мөрөн-Улиастай-Алтай-Бургастай боомт","code":"A1104","pavement":"ердийн хөрсөн","status":"Хаасан","load":"Бага","owner":"Төрийн өмчит компани","builtYear":1978,"lengthKm":39.9},"geometry":{"type":"MultiLineString","coordinates":[[[95.65405,46.3693],[95.65055,46.36534],[95.63229,46.35865],[95.62375,46.3522],[95.61355,46.35],[95.57764,46.3236],[95.57036,46.3225],[95.5527,46.31102],[95.52466,46.29977],[95.45735,46.29438],[95.31703,46.27712],[95.29364,46.2765],[95.27448,46.27189],[95.26955,46.27491],[95.26605,46.27362],[95.26954,46.26792],[95.27586,46.26527],[95.27752,46.25787],[95.28844,46.24677],[95.29234,46.23645],[95.29335,46.22423]]]}},{"type":"Feature","properties":{"name":"Улаанбаатар-Арвайхээр-Баянхонгор-Алтай-Ховд-Өлгий-Цагааннуур боомт","code":"A0304","pavement":"асфальтбетон","status":"Хэвийн","load":"Их","owner":"Төрийн өмчит компани","builtYear":1991,"lengthKm":80.6},"geometry":{"type":"MultiLineString","coordinates":[[[96.25317,46.37416],[96.1589,46.39718],[96.12913,46.4005],[96.10475,46.39476],[96.08278,46.40483],[96.07368,46.40242],[96.06116,46.39318],[96.00465,46.37118],[95.89572,46.3612],[95.79273,46.36766],[95.6192,46.37016],[95.54156,46.37392],[95.49915,46.3815],[95.47836,46.38945],[95.46782,46.4038],[95.44808,46.42345],[95.34019,46.50763],[95.33384,46.5148],[95.32787,46.5173]]]}},{"type":"Feature","properties":{"name":"Ханх боомт-Хатгал-Мөрөн-Улиастай-Алтай-Бургастай боомт","code":"A1103","pavement":"хайрга","status":"Засвар хийгдэж байгаа","load":"Бага","owner":"Төрийн өмчит компани","builtYear":1982,"lengthKm":22.9},"geometry":{"type":"MultiLineString","coordinates":[[[96.46794,46.58012],[96.46061,46.56719],[96.4475,46.55653],[96.44597,46.54951],[96.40647,46.52256],[96.39968,46.51663],[96.40014,46.51119],[96.37836,46.4938],[96.37048,46.48333],[96.34447,46.46556],[96.33419,46.44703],[96.33658,46.43831],[96.31796,46.41171]]]}},{"type":"Feature","properties":{"name":"Улаанбаатар-Арвайхээр-Баянхонгор-Алтай-Ховд-Өлгий-Цагааннуур боомт","code":"A0304","pavement":"асфальтбетон","status":"Хэвийн","load":"Бага","owner":"Төрийн өмчит компани","builtYear":2001,"lengthKm":84.7},"geometry":{"type":"MultiLineString","coordinates":[[[95.32787,46.51731],[95.32099,46.52336],[95.31598,46.53494],[95.28399,46.57432],[95.24829,46.62746],[95.19906,46.66135],[95.07231,46.66548],[94.99743,46.67052],[94.97457,46.6749],[94.94429,46.68599],[94.8967,46.69575],[94.74058,46.71682],[94.64541,46.71407],[94.56854,46.73244],[94.52769,46.73612],[94.51545,46.73967],[94.47629,46.76194],[94.41461,46.78279],[94.38186,46.79882]]]}},{"type":"Feature","properties":{"name":"Улаанбаатар-Арвайхээр-Баянхонгор-Алтай-Ховд-Өлгий-Цагааннуур боомт","code":"A0304","pavement":"асфальтбетон","status":"Хэвийн","load":"Бага","owner":"Төрийн өмчит компани","builtYear":2007,"lengthKm":9.5},"geometry":{"type":"MultiLineString","coordinates":[[[94.27808,46.84632],[94.38185,46.7988]]]}},{"type":"Feature","properties":{"name":"Улаанбаатар-Арвайхээр-Баянхонгор-Алтай-Ховд-Өлгий-Цагааннуур боомт","code":"A0303","pavement":"асфальтбетон","status":"Хэвийн","load":"Бага","owner":"Төрийн өмчит компани","builtYear":2001,"lengthKm":3.3},"geometry":{"type":"MultiLineString","coordinates":[[[96.28146,46.39406],[96.27805,46.39154],[96.27637,46.38525],[96.26294,46.37646],[96.25317,46.37416]]]}},{"type":"Feature","properties":{"name":"Улаанбаатар-Арвайхээр-Баянхонгор-Алтай-Ховд-Өлгий-Цагааннуур боомт","code":"A0303","pavement":"баригдаж байгаа","status":"Ашиглагтанд ороогүй","load":"Бага","owner":"Төрийн өмчит компани","builtYear":1997,"lengthKm":35.5},"geometry":{"type":"MultiLineString","coordinates":[[[98.12911,46.06943],[98.12325,46.07397],[98.09417,46.0707],[98.08738,46.07321],[98.04065,46.07534],[97.99277,46.09003],[97.98336,46.08748],[97.96874,46.08883],[97.95079,46.08041],[97.93594,46.08329],[97.92156,46.08986],[97.87438,46.09302],[97.85188,46.10855],[97.83791,46.12174],[97.81537,46.13277],[97.78477,46.1376],[97.76713,46.14741],[97.72568,46.16181]]]}},{"type":"Feature","properties":{"name":"Ханх боомт-Хатгал-Мөрөн-Улиастай-Алтай-Бургастай боомт","code":"A1103","pavement":"ердийн хөрсөн","status":"Ашиглагтанд ороогүй","load":"Бага","owner":"Төрийн өмчит компани","builtYear":2002,"lengthKm":43.1},"geometry":{"type":"MultiLineString","coordinates":[[[96.60714,46.92631],[96.60401,46.89598],[96.60069,46.88814],[96.60218,46.88519],[96.59817,46.83892],[96.60104,46.82218],[96.59546,46.78381],[96.60021,46.77678],[96.59836,46.76904],[96.5812,46.75249],[96.57354,46.73901],[96.54776,46.70922],[96.53022,46.7108],[96.52639,46.70826],[96.52184,46.69423],[96.50936,46.67255],[96.50816,46.63143],[96.50124,46.60873],[96.48833,46.59462],[96.46982,46.58424],[96.46794,46.58012]]]}}]}