{"type":"FeatureCollection","features":[{"type":"Feature","properties":{"idx":0,"code":"8201","name":"Есөнбулаг","overallIndex":57,"schoolIndex":56.8,"kgIndex":38.7,"healthIndex":62.1,"roadIndex":58.5,"socialIndex":55.4,"educationIndex":48.7,"households":5414,"population":18931,"camps":375,"roadKm":397.4,"roadDensity":170.8,"dSchoolMean":26,"dRoadMean":6.49,"coverRoad5":52,"coverSchool25":54.9,"coverKg15":22.9},"geometry":{"type":"Polygon","coordinates":[[[96.73408,46.25831],[96.83153,46.20633],[97.01569,46.17736],[97.10061,46.07461],[97.03533,46.09231],[96.98397,46.08975],[96.93931,46.043],[96.724,45.94139],[96.68456,46.00278],[96.64542,46.01753],[96.61534,46.0472],[96.62014,46.0615],[96.51539,46.05836],[96.47284,46.164],[96.49612,46.20039],[96.50994,46.20414],[96.32464,46.23714],[96.27594,46.23631],[96.20997,46.17944],[96.07492,46.11003],[96.0715,46.05892],[95.92319,46.13994],[95.74531,46.18083],[95.77467,46.24283],[95.77358,46.34517],[95.86806,46.37767],[95.84275,46.41414],[95.87228,46.42519],[95.89244,46.44339],[95.91295,46.44842],[95.92403,46.47478],[95.94725,46.46817],[96.01997,46.46647],[96.18147,46.43769],[96.23014,46.44939],[96.33953,46.42233],[96.37853,46.30669],[96.31233,46.272],[96.51681,46.21772],[96.556,46.22989],[96.60128,46.21525],[96.73408,46.25831]]]}},{"type":"Feature","properties":{"idx":1,"code":"8204","name":"Алтай","overallIndex":38.1,"schoolIndex":30.7,"kgIndex":16.4,"healthIndex":39.2,"roadIndex":44.3,"socialIndex":31.8,"educationIndex":24.3,"households":523,"population":2056,"camps":370,"roadKm":1111.2,"roadDensity":55.2,"dSchoolMean":43.2,"dRoadMean":5.21,"coverRoad5":63.8,"coverSchool25":19.5,"coverKg15":7.6},"geometry":{"type":"Polygon","coordinates":[[[94.95211,45.25806],[95.16892,45.26197],[95.28067,45.27067],[95.64933,45.17419],[95.92442,45.05942],[96.00928,45.03172],[96.20489,44.92775],[96.21847,44.81042],[96.30142,44.64742],[96.30519,44.51075],[96.28039,44.33769],[96.27506,44.25075],[96.29308,44.1],[96.35708,43.18142],[96.38244,42.98067],[96.36306,42.89872],[95.90919,43.23564],[95.87706,43.27719],[95.85764,43.41367],[95.73589,43.59439],[95.64747,43.77644],[95.62297,43.85189],[95.52281,44.00506],[95.44603,44.00478],[95.37264,44.02444],[95.32317,44.02592],[95.34764,44.08925],[95.35247,44.16658],[95.37314,44.22625],[95.40572,44.24108],[95.42258,44.26481],[95.42597,44.28003],[95.40981,44.29392],[94.99864,44.25089],[94.97778,44.25942],[94.93736,44.29219],[94.89856,44.29936],[94.88239,44.30914],[94.82378,44.31794],[94.78417,44.33692],[94.72381,44.33906],[94.67169,44.39383],[94.60292,44.44681],[94.55586,44.45906],[94.4632,44.51005],[94.46775,44.89786],[94.58361,44.94378],[94.80086,45.09106],[94.81967,45.31725],[94.95211,45.25806]]]}},{"type":"Feature","properties":{"idx":2,"code":"8207","name":"Баян Уул","overallIndex":59.8,"schoolIndex":70.2,"kgIndex":50.2,"healthIndex":76.1,"roadIndex":50.8,"socialIndex":68.7,"educationIndex":61.2,"households":832,"population":3026,"camps":838,"roadKm":476.4,"roadDensity":81.7,"dSchoolMean":24.5,"dRoadMean":4.75,"coverRoad5":64.2,"coverSchool25":53.6,"coverKg15":18},"geometry":{"type":"Polygon","coordinates":[[[95.44106,47.56017],[95.75617,47.43842],[95.49378,47.35933],[95.42658,47.30144],[95.4245,47.26586],[95.52233,47.12394],[95.60775,47.08672],[95.49461,46.97283],[95.52067,46.93178],[95.58231,46.89956],[95.63744,46.84478],[95.58314,46.83992],[95.45789,46.77342],[95.40186,46.70467],[95.26228,46.74342],[95.15661,46.75753],[94.93958,46.70647],[94.57633,46.73194],[94.55064,46.75181],[94.46842,46.78914],[94.27364,46.85636],[94.15539,46.99239],[94.21874,46.99478],[94.42733,47.02506],[94.62758,47.13667],[94.85653,47.20019],[94.92689,47.25275],[94.91561,47.29714],[95.07131,47.3125],[95.1915,47.34442],[95.09942,47.55308],[95.17849,47.57751],[95.20524,47.58257],[95.23398,47.57839],[95.24783,47.58402],[95.29357,47.58439],[95.32482,47.5712],[95.39676,47.57067],[95.44106,47.56017]]]}},{"type":"Feature","properties":{"idx":3,"code":"8210","name":"Бигэр","overallIndex":48.2,"schoolIndex":70.8,"kgIndex":58,"healthIndex":68.1,"roadIndex":29.8,"socialIndex":66.6,"educationIndex":65,"households":640,"population":2243,"camps":689,"roadKm":305.8,"roadDensity":79.6,"dSchoolMean":22.3,"dRoadMean":10.36,"coverRoad5":37.7,"coverSchool25":56,"coverKg15":20.5},"geometry":{"type":"Polygon","coordinates":[[[97.10061,46.07461],[97.1945,46.02669],[97.20546,46.04675],[97.21937,46.05199],[97.24097,46.02969],[97.32308,46.01847],[97.30578,45.99603],[97.35636,45.99022],[97.43625,45.93372],[97.5085,45.90906],[97.63725,45.83253],[97.61745,45.80603],[97.6129,45.78798],[97.6195,45.77233],[97.60928,45.72828],[97.48144,45.69717],[97.50564,45.60842],[97.50106,45.49814],[97.51744,45.33944],[97.41197,45.35206],[97.329,45.37272],[97.22747,45.37806],[96.99544,45.4795],[96.93467,45.52961],[96.90514,45.52658],[96.83314,45.54914],[96.81497,45.56006],[96.75442,45.62808],[96.76053,45.64511],[96.72522,45.68061],[96.81336,45.79411],[96.79433,45.87731],[96.724,45.94139],[96.93931,46.043],[96.98397,46.08975],[97.03533,46.09231],[97.10061,46.07461]]]}},{"type":"Feature","properties":{"idx":4,"code":"8213","name":"Бугат","overallIndex":43.1,"schoolIndex":41.9,"kgIndex":34.7,"healthIndex":43.9,"roadIndex":44.8,"socialIndex":41.3,"educationIndex":38.7,"households":568,"population":2210,"camps":419,"roadKm":519.3,"roadDensity":52.3,"dSchoolMean":34.1,"dRoadMean":7.19,"coverRoad5":53.5,"coverSchool25":43.2,"coverKg15":23.9},"geometry":{"type":"Polygon","coordinates":[[[93.48933,44.96025],[93.42836,45.03292],[93.39169,45.09242],[93.51692,45.25558],[93.42425,45.52819],[93.70336,45.62772],[93.79558,45.63939],[93.92122,45.67472],[93.98933,45.67931],[94.05742,45.71178],[94.0928,45.75148],[94.13556,45.74967],[94.13297,45.77792],[94.17064,45.81958],[94.16467,45.83814],[94.21203,45.87917],[94.32306,45.75094],[94.45558,45.70386],[94.5385,45.70333],[94.7061,45.61408],[94.70299,45.58433],[94.71654,45.57175],[94.70429,45.53622],[94.71266,45.49829],[94.67608,45.45972],[94.81967,45.31725],[94.80086,45.09106],[94.58361,44.94378],[94.46775,44.89786],[94.4632,44.51005],[94.39047,44.5225],[94.348,44.51672],[94.34311,44.52275],[94.34739,44.54144],[94.32633,44.58233],[94.27619,44.60492],[94.22139,44.64753],[94.21136,44.66772],[94.14997,44.68361],[94.06208,44.73242],[93.72867,44.86147],[93.71197,44.87539],[93.70989,44.89678],[93.69414,44.89503],[93.67956,44.90117],[93.67741,44.90831],[93.54318,44.94878],[93.50431,44.96817],[93.5009,44.95522],[93.48933,44.96025]]]}},{"type":"Feature","properties":{"idx":5,"code":"8216","name":"Дарив","overallIndex":47.9,"schoolIndex":60.3,"kgIndex":42.8,"healthIndex":68.1,"roadIndex":35.5,"socialIndex":60.3,"educationIndex":52.4,"households":459,"population":1860,"camps":466,"roadKm":209,"roadDensity":59.8,"dSchoolMean":26.8,"dRoadMean":7.91,"coverRoad5":35.6,"coverSchool25":44.6,"coverKg15":16.3},"geometry":{"type":"Polygon","coordinates":[[[94.58072,46.17256],[94.43764,46.13164],[94.264,46.23997],[94.22314,46.27967],[94.21842,46.35517],[94.10103,46.34514],[93.93297,46.41725],[93.86439,46.4255],[93.81317,46.487],[93.69633,46.5815],[93.61708,46.61406],[93.58267,46.62053],[93.68906,46.62339],[93.73244,46.60048],[93.78513,46.60257],[93.83797,46.62144],[93.93167,46.72411],[94.08761,46.72103],[94.30717,46.77872],[94.27364,46.85636],[94.46842,46.78914],[94.55064,46.75181],[94.57633,46.73194],[94.69142,46.72764],[94.72669,46.59125],[94.70819,46.58839],[94.74683,46.543],[94.74646,46.53083],[94.71486,46.51493],[94.7102,46.50185],[94.68244,46.47975],[94.63992,46.46775],[94.61015,46.44096],[94.59851,46.39786],[94.58044,46.38292],[94.57114,46.36392],[94.72269,46.23556],[94.58072,46.17256]]]}},{"type":"Feature","properties":{"idx":6,"code":"8219","name":"Дэлгэр","overallIndex":45.6,"schoolIndex":47.9,"kgIndex":36.7,"healthIndex":48.5,"roadIndex":45.5,"socialIndex":45.7,"educationIndex":42.9,"households":928,"population":3146,"camps":802,"roadKm":680.8,"roadDensity":102.9,"dSchoolMean":33.4,"dRoadMean":8.43,"coverRoad5":43.3,"coverSchool25":29.2,"coverKg15":9.5},"geometry":{"type":"Polygon","coordinates":[[[97.63119,46.60144],[97.65072,46.57183],[97.65006,46.53706],[97.66642,46.51736],[97.67481,46.44442],[97.72744,46.41136],[97.73608,46.35856],[97.72847,46.33464],[97.77472,46.32411],[97.79,46.30294],[97.80006,46.26622],[97.94928,46.20764],[98.00239,46.13089],[98.12542,46.08733],[98.17358,46.04547],[98.18078,46.01403],[98.31089,45.89011],[98.35358,45.87844],[98.42217,45.81228],[98.45658,45.75578],[98.33056,45.72658],[98.04403,45.70428],[97.93022,45.80553],[97.84911,45.80767],[97.70175,45.83092],[97.63725,45.83253],[97.5085,45.90906],[97.43625,45.93372],[97.35636,45.99022],[97.30578,45.99603],[97.32308,46.01847],[97.24097,46.02969],[97.21937,46.05199],[97.20546,46.04675],[97.1945,46.02669],[97.10061,46.07461],[97.01569,46.17736],[96.83153,46.20633],[96.73408,46.25831],[96.74358,46.47044],[96.84264,46.52864],[96.98128,46.57897],[96.98817,46.58953],[97.01811,46.59956],[97.20936,46.56531],[97.27561,46.58639],[97.28228,46.59656],[97.30881,46.61111],[97.32473,46.63503],[97.35283,46.64964],[97.37568,46.68694],[97.38246,46.71901],[97.40884,46.72075],[97.41214,46.72669],[97.43081,46.71739],[97.46558,46.63714],[97.52994,46.59139],[97.63119,46.60144]]]}},{"type":"Feature","properties":{"idx":7,"code":"8222","name":"Жаргалан","overallIndex":72.4,"schoolIndex":62.6,"kgIndex":51.8,"healthIndex":64.7,"roadIndex":83.6,"socialIndex":61.2,"educationIndex":57.7,"households":506,"population":1826,"camps":469,"roadKm":989.5,"roadDensity":269.9,"dSchoolMean":21.6,"dRoadMean":1.54,"coverRoad5":96.4,"coverSchool25":67,"coverKg15":27.3},"geometry":{"type":"Polygon","coordinates":[[[96.06797,47.32292],[96.17178,47.29069],[96.16294,47.2595],[96.23097,47.20347],[96.26569,47.2025],[96.27222,47.10164],[96.25925,47.03503],[96.23706,47.01444],[96.24072,46.97633],[96.29172,46.92381],[96.30847,46.89208],[96.28953,46.86178],[96.2905,46.84861],[96.31619,46.8526],[96.32082,46.86332],[96.34637,46.84301],[96.35953,46.84608],[96.10383,46.74317],[96.01578,46.72092],[96.01428,46.69997],[95.8015,46.78933],[95.73278,46.78444],[95.63744,46.84478],[95.58231,46.89956],[95.52067,46.93178],[95.49461,46.97283],[95.60775,47.08672],[95.52233,47.12394],[95.4245,47.26586],[95.42658,47.30144],[95.49378,47.35933],[95.75617,47.43842],[95.88842,47.37681],[95.92141,47.35362],[95.96234,47.35568],[96.03507,47.32603],[96.06797,47.32292]]]}},{"type":"Feature","properties":{"idx":8,"code":"8225","name":"Тайшир","overallIndex":69.1,"schoolIndex":67.7,"kgIndex":45.4,"healthIndex":70.4,"roadIndex":74,"socialIndex":64.1,"educationIndex":57.7,"households":467,"population":1599,"camps":453,"roadKm":531.2,"roadDensity":142.3,"dSchoolMean":20.3,"dRoadMean":3.45,"coverRoad5":76.8,"coverSchool25":73.5,"coverKg15":24.7},"geometry":{"type":"Polygon","coordinates":[[[96.79092,46.87628],[96.87769,46.74008],[96.94853,46.69344],[96.94256,46.65675],[96.98817,46.58953],[96.98128,46.57897],[96.84264,46.52864],[96.74358,46.47044],[96.73408,46.25831],[96.60128,46.21525],[96.556,46.22989],[96.51681,46.21772],[96.31233,46.272],[96.37853,46.30669],[96.33953,46.42233],[96.23014,46.44939],[96.18147,46.43769],[96.01997,46.46647],[95.94725,46.46817],[95.92292,46.47674],[95.92132,46.50192],[95.96614,46.62014],[96.01428,46.69997],[96.01578,46.72092],[96.10383,46.74317],[96.35953,46.84608],[96.55256,46.89303],[96.66133,46.96131],[96.73158,46.89717],[96.79092,46.87628]]]}},{"type":"Feature","properties":{"idx":9,"code":"8228","name":"Тонхил","overallIndex":32.2,"schoolIndex":34.1,"kgIndex":31.1,"healthIndex":34,"roadIndex":30.9,"socialIndex":33.4,"educationIndex":32.8,"households":606,"population":2222,"camps":815,"roadKm":362.4,"roadDensity":48,"dSchoolMean":39.8,"dRoadMean":7.85,"coverRoad5":41.5,"coverSchool25":31.7,"coverKg15":13.7},"geometry":{"type":"Polygon","coordinates":[[[93.51692,45.25558],[93.39169,45.09242],[93.42836,45.03292],[93.48935,44.96024],[93.48226,44.96708],[93.46278,44.95761],[93.42898,44.95616],[93.37631,44.98641],[93.33921,44.98672],[93.32297,44.99467],[93.31289,44.9801],[93.20444,45.00253],[93.19269,45.07381],[93.16692,45.12908],[93.14658,45.32586],[93.13889,45.56472],[93.09944,45.63014],[93.11297,45.66075],[93.12564,45.67333],[93.11303,45.74253],[93.18428,45.76753],[93.23931,45.80592],[93.36344,45.84314],[93.36409,45.86614],[93.38457,45.91012],[93.43699,45.94723],[93.44667,45.96483],[93.44456,45.9835],[93.40308,46.00625],[93.40175,46.02806],[93.42775,46.04189],[93.47433,46.09772],[93.46178,46.117],[93.51769,46.18503],[93.53504,46.19455],[93.55556,46.25233],[93.60664,46.32044],[93.64756,46.39372],[93.59178,46.464],[93.60733,46.49531],[93.5665,46.52328],[93.50122,46.59864],[93.54358,46.63533],[93.61708,46.61406],[93.69633,46.5815],[93.81317,46.487],[93.86439,46.4255],[93.93297,46.41725],[94.10103,46.34514],[94.21842,46.35517],[94.22314,46.27967],[94.264,46.23997],[94.43764,46.13164],[94.28903,45.97219],[94.21203,45.87917],[94.16467,45.83814],[94.17064,45.81958],[94.13297,45.77792],[94.13556,45.74967],[94.0928,45.75148],[94.05742,45.71178],[93.98933,45.67931],[93.92122,45.67472],[93.79558,45.63939],[93.70336,45.62772],[93.42425,45.52819],[93.51692,45.25558]]]}},{"type":"Feature","properties":{"idx":10,"code":"8231","name":"Төгрөг","overallIndex":48.6,"schoolIndex":61.2,"kgIndex":43.6,"healthIndex":75.7,"roadIndex":32.7,"socialIndex":64.5,"educationIndex":53.3,"households":565,"population":2034,"camps":519,"roadKm":312,"roadDensity":57.9,"dSchoolMean":25.1,"dRoadMean":10.26,"coverRoad5":30.8,"coverSchool25":45.3,"coverKg15":18.7},"geometry":{"type":"Polygon","coordinates":[[[94.21203,45.87917],[94.28903,45.97219],[94.43764,46.13164],[94.58072,46.17256],[94.78497,46.128],[94.98625,46.14811],[95.35778,46.20189],[95.26453,46.02878],[95.28189,45.98081],[95.32551,45.94411],[95.33263,45.9286],[95.36163,45.90587],[95.36503,45.89364],[95.37913,45.88973],[95.40089,45.86007],[95.39595,45.83795],[95.4247,45.82636],[95.43403,45.80294],[95.35697,45.75594],[95.33156,45.73225],[95.28625,45.71319],[95.21111,45.70022],[95.16439,45.64003],[95.14708,45.50533],[95.07747,45.44286],[95.01661,45.36253],[94.95211,45.25806],[94.81967,45.31725],[94.67608,45.45972],[94.71266,45.49829],[94.70429,45.53622],[94.71635,45.57435],[94.70299,45.58433],[94.70868,45.60714],[94.70272,45.61797],[94.5385,45.70333],[94.45558,45.70386],[94.32306,45.75094],[94.21203,45.87917]]]}},{"type":"Feature","properties":{"idx":11,"code":"8234","name":"Халиун","overallIndex":54.3,"schoolIndex":58.5,"kgIndex":52.1,"healthIndex":62,"roadIndex":49.8,"socialIndex":58.8,"educationIndex":55.6,"households":671,"population":2458,"camps":640,"roadKm":477.9,"roadDensity":92.8,"dSchoolMean":25.7,"dRoadMean":4.85,"coverRoad5":64.1,"coverSchool25":44.8,"coverKg15":17},"geometry":{"type":"Polygon","coordinates":[[[96.724,45.94139],[96.79433,45.87731],[96.81336,45.79411],[96.72522,45.68061],[96.54439,45.69519],[96.50278,45.71644],[96.44131,45.70306],[96.2395,45.72375],[96.16361,45.74336],[96.05425,45.78928],[95.73511,45.78797],[95.68233,45.80639],[95.55925,45.81397],[95.50333,45.81369],[95.43403,45.80294],[95.4247,45.82636],[95.39595,45.83795],[95.40089,45.86007],[95.37913,45.88973],[95.36503,45.89364],[95.36163,45.90587],[95.33263,45.9286],[95.32551,45.94411],[95.28189,45.98081],[95.26453,46.02878],[95.35778,46.20189],[95.53514,46.28189],[95.77358,46.34517],[95.77467,46.24283],[95.74531,46.18083],[95.92319,46.13994],[96.0715,46.05892],[96.07492,46.11003],[96.20997,46.17944],[96.27594,46.23631],[96.32464,46.23714],[96.50994,46.20414],[96.49612,46.20039],[96.47284,46.164],[96.51539,46.05836],[96.62014,46.0615],[96.61534,46.0472],[96.64542,46.01753],[96.68456,46.00278],[96.724,45.94139]]]}},{"type":"Feature","properties":{"idx":12,"code":"8237","name":"Хөхморьт","overallIndex":47.5,"schoolIndex":58.4,"kgIndex":45.5,"healthIndex":63.6,"roadIndex":36.8,"socialIndex":58.1,"educationIndex":52.6,"households":666,"population":2367,"camps":370,"roadKm":374.5,"roadDensity":59.4,"dSchoolMean":31.2,"dRoadMean":6.3,"coverRoad5":46.8,"coverSchool25":35.4,"coverKg15":16.5},"geometry":{"type":"Polygon","coordinates":[[[95.09942,47.55308],[95.1915,47.34442],[95.07131,47.3125],[94.91561,47.29714],[94.92689,47.25275],[94.85653,47.20019],[94.62758,47.13667],[94.42733,47.02506],[94.17814,46.99205],[94.15539,46.99239],[94.04236,47.21283],[94.058,47.24667],[93.99125,47.30628],[93.79158,47.34894],[93.71808,47.44433],[93.64967,47.49189],[93.57278,47.52089],[93.51522,47.56672],[93.52372,47.57883],[93.5915,47.61828],[93.62644,47.66439],[93.99375,47.73333],[94.12072,47.77953],[94.19569,47.79322],[94.21607,47.76828],[94.24892,47.75474],[94.28625,47.72925],[94.3783,47.70549],[94.43453,47.70069],[94.44712,47.69173],[94.47649,47.68837],[94.49486,47.6795],[94.57698,47.67233],[94.58537,47.67389],[94.57008,47.67536],[94.62492,47.67894],[94.65792,47.67146],[94.70224,47.67596],[94.75275,47.671],[94.77377,47.67522],[94.80039,47.66977],[94.85977,47.67573],[94.88115,47.67109],[94.8708,47.67155],[94.88463,47.66146],[94.89143,47.66502],[94.88203,47.66347],[94.88034,47.66957],[94.89647,47.67184],[94.9641,47.65824],[94.98046,47.65381],[94.99452,47.63172],[95.02299,47.61446],[95.03796,47.58214],[95.05657,47.57385],[95.0616,47.56397],[95.07391,47.56552],[95.07883,47.55301],[95.09942,47.55308]]]}},{"type":"Feature","properties":{"idx":13,"code":"8240","name":"Цогт","overallIndex":41.5,"schoolIndex":58.2,"kgIndex":42.7,"healthIndex":58.3,"roadIndex":28.2,"socialIndex":54.8,"educationIndex":51.2,"households":994,"population":3585,"camps":738,"roadKm":798,"roadDensity":47.9,"dSchoolMean":29.9,"dRoadMean":8.69,"coverRoad5":38.8,"coverSchool25":45.7,"coverKg15":16.9},"geometry":{"type":"Polygon","coordinates":[[[96.72522,45.68061],[96.76053,45.64511],[96.75442,45.62808],[96.81497,45.56006],[96.83314,45.54914],[96.90514,45.52658],[96.93467,45.52961],[96.99544,45.4795],[97.22747,45.37806],[97.329,45.37272],[97.317,45.35867],[97.32373,45.30685],[97.31998,45.28609],[97.2985,45.2519],[97.30425,45.23729],[97.27137,45.18447],[97.25228,45.17548],[97.23955,45.16216],[97.22902,45.13673],[97.20001,45.1202],[97.1939,45.11012],[97.16019,45.10065],[97.11998,45.07708],[97.11183,45.06238],[97.09495,45.0555],[97.08768,45.02635],[97.06789,45.01364],[97.02736,44.83497],[96.98858,44.74292],[96.95294,44.54892],[96.91767,43.65647],[96.68772,43.54933],[96.68844,43.33428],[96.66819,42.94903],[96.64775,42.83494],[96.74856,42.75497],[96.3875,42.72464],[96.36306,42.89872],[96.38244,42.98067],[96.35708,43.18142],[96.29308,44.1],[96.27506,44.25075],[96.28039,44.33769],[96.30519,44.51075],[96.30142,44.64742],[96.21847,44.81042],[96.20489,44.92775],[96.00928,45.03172],[96.06264,45.07631],[96.06253,45.10769],[96.10103,45.28275],[96.10231,45.34292],[96.20394,45.51742],[96.28667,45.61286],[96.26742,45.63569],[96.25733,45.6956],[96.23939,45.70714],[96.2395,45.72375],[96.44131,45.70306],[96.50278,45.71644],[96.54439,45.69519],[96.72522,45.68061]]]}},{"type":"Feature","properties":{"idx":14,"code":"8243","name":"Цээл","overallIndex":37.2,"schoolIndex":48.2,"kgIndex":32.4,"healthIndex":45.5,"roadIndex":31,"socialIndex":43.3,"educationIndex":41.1,"households":597,"population":2207,"camps":447,"roadKm":364.3,"roadDensity":65.2,"dSchoolMean":30.2,"dRoadMean":7.74,"coverRoad5":38.5,"coverSchool25":38.5,"coverKg15":10.7},"geometry":{"type":"Polygon","coordinates":[[[96.2395,45.72375],[96.23939,45.70714],[96.25733,45.6956],[96.26742,45.63569],[96.28667,45.61286],[96.20394,45.51742],[96.10231,45.34292],[96.10103,45.28275],[96.06253,45.10769],[96.06264,45.07631],[96.00928,45.03172],[95.92442,45.05942],[95.64933,45.17419],[95.28067,45.27067],[95.16892,45.26197],[94.95211,45.25806],[95.01661,45.36253],[95.07747,45.44286],[95.14708,45.50533],[95.16439,45.64003],[95.21111,45.70022],[95.28625,45.71319],[95.33156,45.73225],[95.35697,45.75594],[95.43403,45.80294],[95.50333,45.81369],[95.55925,45.81397],[95.68233,45.80639],[95.73511,45.78797],[96.05425,45.78928],[96.16361,45.74336],[96.2395,45.72375]]]}},{"type":"Feature","properties":{"idx":15,"code":"8246","name":"Чандмань","overallIndex":58.7,"schoolIndex":78.6,"kgIndex":59.2,"healthIndex":78.6,"roadIndex":43,"socialIndex":74.3,"educationIndex":69.9,"households":650,"population":2247,"camps":489,"roadKm":437.3,"roadDensity":95.2,"dSchoolMean":25.6,"dRoadMean":5.84,"coverRoad5":53.6,"coverSchool25":49.3,"coverKg15":19.8},"geometry":{"type":"Polygon","coordinates":[[[98.45658,45.75578],[98.48636,45.45081],[98.48419,45.38903],[98.40161,45.19239],[98.34242,45.12006],[98.32719,45.03972],[98.03528,45.18836],[97.8965,45.20453],[97.80517,45.25508],[97.74194,45.27256],[97.72469,45.2846],[97.72075,45.29461],[97.59661,45.33869],[97.51744,45.33944],[97.50106,45.49814],[97.50564,45.60842],[97.48144,45.69717],[97.60928,45.72828],[97.6195,45.77233],[97.6129,45.78798],[97.61745,45.80603],[97.63725,45.83253],[97.70175,45.83092],[97.84911,45.80767],[97.93022,45.80553],[98.04403,45.70428],[98.33056,45.72658],[98.45658,45.75578]]]}},{"type":"Feature","properties":{"idx":16,"code":"8249","name":"Шарга","overallIndex":36.1,"schoolIndex":43.8,"kgIndex":21.1,"healthIndex":54.5,"roadIndex":28.1,"socialIndex":44.1,"educationIndex":33.6,"households":595,"population":1936,"camps":556,"roadKm":317.9,"roadDensity":55.7,"dSchoolMean":33.3,"dRoadMean":12.04,"coverRoad5":24.8,"coverSchool25":19.4,"coverKg15":13.3},"geometry":{"type":"Polygon","coordinates":[[[96.01428,46.69997],[95.96614,46.62014],[95.92132,46.50192],[95.92486,46.48471],[95.91873,46.45441],[95.88835,46.44108],[95.87184,46.42494],[95.84275,46.41414],[95.86806,46.37767],[95.77358,46.34517],[95.53514,46.28189],[95.35778,46.20189],[94.98625,46.14811],[94.78497,46.128],[94.58072,46.17256],[94.72269,46.23556],[94.57114,46.36392],[94.58044,46.38292],[94.59851,46.39786],[94.61015,46.44096],[94.63992,46.46775],[94.68244,46.47975],[94.7102,46.50185],[94.71486,46.51493],[94.74646,46.53083],[94.74683,46.543],[94.70819,46.58839],[94.72669,46.59125],[94.69142,46.72764],[94.93958,46.70647],[95.15661,46.75753],[95.26228,46.74342],[95.40186,46.70467],[95.45789,46.77342],[95.58314,46.83992],[95.63744,46.84478],[95.73278,46.78444],[95.8015,46.78933],[96.01428,46.69997]]]}},{"type":"Feature","properties":{"idx":17,"code":"8252","name":"Эрдэнэ","overallIndex":37.8,"schoolIndex":41.1,"kgIndex":31.8,"healthIndex":40.6,"roadIndex":36.9,"socialIndex":38.8,"educationIndex":36.9,"households":678,"population":2327,"camps":395,"roadKm":1103.4,"roadDensity":44.3,"dSchoolMean":43.7,"dRoadMean":5.74,"coverRoad5":52.2,"coverSchool25":12.9,"coverKg15":4.8},"geometry":{"type":"Polygon","coordinates":[[[97.51744,45.33944],[97.59661,45.33869],[97.72075,45.29461],[97.72469,45.2846],[97.74194,45.27256],[97.80517,45.25508],[97.8965,45.20453],[98.03528,45.18836],[98.32719,45.03972],[98.24769,44.94597],[98.23658,44.88611],[98.24114,44.854],[98.21328,44.83728],[98.26314,44.72169],[98.22675,44.63531],[98.19744,44.52258],[98.10561,44.45331],[97.94819,44.411],[97.96947,44.08886],[97.98773,44.07165],[97.98418,44.0533],[97.97635,44.04948],[97.96827,44.03144],[97.9722,44.01707],[97.98961,43.99673],[97.97025,43.90982],[97.9673,43.84386],[97.94889,43.80005],[97.95247,43.76022],[97.93362,43.7227],[97.94911,43.69956],[97.94767,43.66448],[97.97635,43.62886],[97.9643,43.61825],[97.95716,43.59342],[97.9034,43.54036],[97.90187,43.53088],[97.92387,43.51079],[97.84562,43.38702],[97.84518,43.37126],[97.77573,43.31311],[97.82106,43.03189],[97.84628,42.70233],[97.1715,42.79456],[96.97775,42.75433],[96.74856,42.75497],[96.64775,42.83494],[96.66819,42.94903],[96.68844,43.33428],[96.68772,43.54933],[96.91767,43.65647],[96.95294,44.54892],[96.98858,44.74292],[97.02736,44.83497],[97.06789,45.01364],[97.08768,45.02635],[97.09495,45.0555],[97.11183,45.06238],[97.11998,45.07708],[97.16019,45.10065],[97.1939,45.11012],[97.20001,45.1202],[97.22902,45.13673],[97.23955,45.16216],[97.25228,45.17548],[97.2722,45.18542],[97.29674,45.22119],[97.30506,45.24062],[97.29859,45.2522],[97.32078,45.28804],[97.32363,45.30905],[97.31746,45.3327],[97.32249,45.33933],[97.317,45.35867],[97.329,45.37272],[97.41197,45.35206],[97.51744,45.33944]]]}}]}